sat04735
1 04735U 70025CJ  20046.42350521  .00000817  00000-0  24642-3 0  9994
2 04735  99.6670  19.0707 0051457 160.9681 199.3444 14.44968373558006
